[{"OBJECT_NAME":"STARLINK-34193","OBJECT_ID":"2025-101T","EPOCH":"2026-03-09T04:12:21.490272","MEAN_MOTION":15.27573864,"ECCENTRICITY":0.00016818,"INCLINATION":43.0022,"RA_OF_ASC_NODE":1.1202,"ARG_OF_PERICENTER":295.0137,"MEAN_ANOMALY":65.054,"EPHEMERIS_TYPE":0,"CLASSIFICATION_TYPE":"U","NORAD_CAT_ID":64011,"ELEMENT_SET_NO":999,"REV_AT_EPOCH":4697,"BSTAR":0.0010599137,"MEAN_MOTION_DOT":0.00029014,"MEAN_MOTION_DDOT":0},{"OBJECT_NAME":"GEOSCAN 2 (RS92S2)","OBJECT_ID":"2025-155Q","EPOCH":"2026-03-09T23:01:48.939744","MEAN_MOTION":15.28709337,"ECCENTRICITY":0.00085277,"INCLINATION":97.4463,"RA_OF_ASC_NODE":37.5259,"ARG_OF_PERICENTER":140.9505,"MEAN_ANOMALY":219.2352,"EPHEMERIS_TYPE":0,"CLASSIFICATION_TYPE":"U","NORAD_CAT_ID":64890,"ELEMENT_SET_NO":999,"REV_AT_EPOCH":6561,"BSTAR":0.00051551761,"MEAN_MOTION_DOT":0.00014341,"MEAN_MOTION_DDOT":0}]
